STARLINK-3116           
1 49146U 21082S   22006.91667824  .00032624  00000+0  27409-3 0  9991
2 49146  70.0001 164.1931 0003766 278.4884 239.0161 15.69739568 19283
STARLINK-3071           
1 49147U 21082T   22006.91667824  .00033024  00000+0  27722-3 0  9995
2 49147  70.0008 164.1944 0003787 281.1604 232.1615 15.69756299 19287
STARLINK-3048           
1 49148U 21082U   22006.58334491 -.00029431  00000+0 -24534-3 0  9997
2 49148  69.9982 165.1237 0003525 278.9648 161.7914 15.69775826  3687
STARLINK-3053           
1 49149U 21082V   22006.58334491 -.00043867  00000+0 -36898-2 0  9992
2 49149  69.9974 174.7578 0003343 280.7671 155.8271 14.98348071  3597
STARLINK-3104           
1 49150U 21082W   22006.83335648  .00030298  00000+0  25372-2 0  9994
2 49150  69.9966 174.1275 0003314 285.8682  84.7274 14.98311414 19078
STARLINK-3102           
1 49151U 21082X   22006.58334491 -.00028690  00000+0 -23928-3 0  9993
2 49151  69.9994 165.1144 0003801 277.7137 165.1618 15.69755969  3683
STARLINK-3081           
1 49152U 21082Y   22006.58334491 -.00028677  00000+0 -23893-3 0  9990
2 49152  70.0001 165.1099 0003405 278.9486 172.4760 15.69783023 19199
STARLINK-3072           
1 49153U 21082Z   22006.91667824  .00032825  00000+0  27573-3 0  9994
2 49153  69.9979 164.1795 0003779 279.3064 250.9773 15.69742598 18113
STARLINK-3068           
1 49154U 21082AA  22006.58334491 -.00137897  00000+0 -11688-2 0  9995
2 49154  69.9984 165.1108 0003657 278.6884 174.8994 15.69821941 19149
STARLINK-3060           
1 49155U 21082AB  22006.58334491 -.00026089  00000+0 -21725-3 0  9990
2 49155  69.9991 165.1065 0004107 282.1148 167.1731 15.69766472 19145
STARLINK-3085           
1 49156U 21082AC  22006.91667824 -.00065617  00000+0 -55084-3 0  9992
2 49156  69.9989 164.1585 0003429 285.0065 258.0478 15.69807855 19199
STARLINK-3051           
1 49157U 21082AD  22006.58334491 -.00027406  00000+0 -22814-3 0  9996
2 49157  70.0002 165.1052 0003635 275.7632 179.8855 15.69790624  3685
STARLINK-3083           
1 49158U 21082AE  22006.58334491 -.00026535  00000+0 -22103-3 0  9990
2 49158  69.9981 165.0951 0004071 276.1263 188.0349 15.69763983  3684
STARLINK-3056           
1 49159U 21082AF  22006.91667824  .00032978  00000+0  27603-2 0  9992
2 49159  69.9978 173.9185 0003363 291.9246 193.7638 14.98305801 18971
STARLINK-3095           
1 49160U 21082AG  22006.91667824  .00035592  00000+0  29749-2 0  9992
2 49160  69.9986 173.9172 0003457 284.6747 252.2247 14.98337615 18961
STARLINK-3080           
1 49161U 21082AH  22006.91667824  .00034764  00000+0  29082-2 0  9993
2 49161  69.9983 173.9186 0003895 283.4296 227.8536 14.98310543 18966
STARLINK-3082           
1 49162U 21082AJ  22006.91667824  .00035509  00000+0  29689-2 0  9995
2 49162  69.9990 173.9174 0003516 285.9406 276.8290 14.98325780 19053
STARLINK-3088           
1 49163U 21082AK  22006.91667824 -.00015019  00000+0 -12412-3 0  9999
2 49163  69.9995 164.1506 0003371 279.7828 271.8569 15.69775705 19282
STARLINK-3106           
1 49164U 21082AL  22006.91667824  .00034135  00000+0  28688-3 0  9990
2 49164  69.9994 164.1389 0003583 281.6044 280.6673 15.69720655 19286
STARLINK-3052           
1 49165U 21082AM  22006.91667824  .00034417  00000+0  28785-2 0  9991
2 49165  69.9990 173.9167 0003573 275.4208 312.9928 14.98322796 19093
STARLINK-3089           
1 49166U 21082AN  22006.58334491 -.00027489  00000+0 -22889-3 0  9999
2 49166  69.9990 165.0753 0003687 275.0062 201.9166 15.69784913  3688
STARLINK-3054           
1 49167U 21082AP  22006.91667824  .00032375  00000+0  27099-2 0  9991
2 49167  69.9985 173.9033 0003287 271.0260 343.0019 14.98310506 19095
STARLINK-3101           
1 49168U 21082AQ  22006.58334491 -.00027610  00000+0 -22989-3 0  9998
2 49168  70.0009 165.0646 0003409 276.3610 209.0537 15.69788027  3681
STARLINK-3046           
1 49169U 21082AR  22006.58334491 -.00026537  00000+0 -22115-3 0  9997
2 49169  69.9992 165.0705 0003700 272.3556 208.8003 15.69754491  3688
STARLINK-3074           
1 49170U 21082AS  22006.58334491 -.00041396  00000+0 -34799-2 0  9999
2 49170  70.0000 174.7440 0003129 270.6928 125.5606 14.98353916  3597
STARLINK-3107           
1 49171U 21082AT  22006.91667824  .00028875  00000+0  24192-2 0  9997
2 49171  70.0002 173.9045 0003249 273.2967  17.6055 14.98307642 19037
STARLINK-3091           
1 49172U 21082AU  22006.58334491 -.00028386  00000+0 -23672-3 0  9994
2 49172  69.9991 165.0559 0004084 275.3685 218.5618 15.69753774  3683
STARLINK-3045           
1 49173U 21082AV  22006.58334491 -.00037307  00000+0 -31187-3 0  9998
2 49173  70.0014 164.7476 0003617 268.5089 131.8757 15.69767242  3675
STARLINK-3047           
1 49174U 21082AW  22006.91667824  .00035277  00000+0  29646-3 0  9994
2 49174  69.9999 164.1278 0003500 284.0625 288.8184 15.69714724 19287
STARLINK-3087           
1 49175U 21082AX  22006.58334491 -.00026938  00000+0 -22452-3 0  9993
2 49175  69.9997 165.0552 0003936 275.5906 220.4752 15.69754566  3689
STARLINK-3069           
1 49176U 21082AY  22006.58334491 -.00026530  00000+0 -22101-3 0  9993
2 49176  70.0009 165.0430 0003614 275.2286 229.3628 15.69764000  3687
STARLINK-3103           
1 49177U 21082AZ  22006.58334491 -.00028041  00000+0 -23386-3 0  9999
2 49177  70.0003 165.0512 0003621 277.6209 220.5550 15.69752096  3681
STARLINK-3086           
1 49178U 21082BA  22006.91667824  .00034049  00000+0  28474-2 0  9991
2 49178  69.9966 173.9166 0003413 287.3594 209.2282 14.98330657 19032
STARLINK-3043           
1 49179U 21082BB  22006.58334491 -.00027251  00000+0 -22722-3 0  9996
2 49179  69.9999 165.0518 0003415 276.4107 223.8886 15.69751213  3683
STARLINK-3050           
1 49180U 21082BC  22006.91667824  .00035800  00000+0  30033-3 0  9995
2 49180  70.0001 164.1040 0003639 281.1059 308.7471 15.69752570 19293
STARLINK-3059           
1 49181U 21082BD  22006.91667824  .00033639  00000+0  28144-2 0  9993
2 49181  70.0005 173.9041 0003461 273.8879 325.5464 14.98317350 19055
ONEWEB-0292             
1 49186U 21083A   22006.91667824 -.00061147  00000+0 -68474-2 0  9996
2 49186  87.3522 287.9385 0017874 255.1323 320.9405 14.87205983 18365
ONEWEB-0303             
1 49187U 21083B   22006.91667824 -.00043182  00000+0 -11005+0 0  9991
2 49187  87.9079 297.9297 0001879  88.5759 298.2995 13.18706690 17455
ONEWEB-0306             
1 49188U 21083C   22006.91667824 -.00043638  00000+0 -11121+0 0  9997
2 49188  87.9062 297.9128 0002332  87.0201 329.1419 13.18710836 17498
ONEWEB-0307             
1 49189U 21083D   22006.91667824 -.00055796  00000+0 -62476-2 0  9998
2 49189  87.3633 288.0120 0015665 244.9021 197.3396 14.87209554 18359
ONEWEB-0320             
1 49190U 21083E   22006.91667824 -.00043275  00000+0 -11028+0 0  9993
2 49190  87.9104 297.9302 0001425  72.5394 321.6245 13.18712002 17453
ONEWEB-0321             
1 49191U 21083F   22006.91667824 -.00059542  00000+0 -62698-2 0  9990
2 49191  87.2067 287.7738 0018491 254.6637  54.0425 14.89681184 18384
ONEWEB-0322             
1 49192U 21083G   22006.91667824 -.00060312  00000+0 -67607-2 0  9993
2 49192  87.3495 287.9520 0016683 257.4948 289.1481 14.87176658 18363
ONEWEB-0324             
1 49193U 21083H   22006.91667824 -.00044194  00000+0 -11266+0 0  9991
2 49193  87.9088 297.9392 0002056  91.9836 353.4810 13.18695113 17479
ONEWEB-0325             
1 49194U 21083J   22006.91667824 -.00043900  00000+0 -11190+0 0  9992
2 49194  87.9088 297.8284 0000538  69.4308   1.4431 13.18699114 17481
ONEWEB-0326             
1 49195U 21083K   22006.91667824 -.00043087  00000+0 -10980+0 0  9995
2 49195  87.9093 297.9217 0001663  91.4055 288.0246 13.18710628 17479
ONEWEB-0327             
1 49196U 21083L   22006.91667824 -.00044348  00000+0 -11395+0 0  9998
2 49196  87.9096 297.8734 0002273  99.2618 359.9467 13.18159309 17493
ONEWEB-0328             
1 49197U 21083M   22006.91667824 -.00059464  00000+0 -66694-2 0  9999
2 49197  87.3550 287.9578 0016211 255.2527 262.9870 14.87155104 18363
ONEWEB-0331             
1 49198U 21083N   22006.91667824 -.00043384  00000+0 -11056+0 0  9993
2 49198  87.9108 297.9185 0001952  90.0518 311.3940 13.18710106 17486
ONEWEB-0333             
1 49199U 21083P   22006.58334491  .00037957  00000+0  41951-2 0  9995
2 49199  87.3425 288.1197 0015861 256.3960 247.3025 14.87143386  3552
ONEWEB-0334             
1 49200U 21083Q   22006.58334491  .00039295  00000+0  41129-2 0  9992
2 49200  87.2024 287.8291 0018693 249.1082 136.0036 14.89309222  3552
ONEWEB-0335             
1 49201U 21083R   22006.58334491  .00039731  00000+0  43854-2 0  9995
2 49201  87.3424 288.1368 0018687 244.4747  48.6396 14.87152163  3539
ONEWEB-0336             
1 49202U 21083S   22006.58334491  .00038717  00000+0  42776-2 0  9991
2 49202  87.3401 288.1008 0016632 241.4576 125.1804 14.87144927  3546
ONEWEB-0337             
1 49203U 21083T   22006.58334491  .00038821  00000+0  42840-2 0  9990
2 49203  87.3567 288.1126 0018408 248.2540 105.5197 14.87169632  3536
ONEWEB-0338             
1 49204U 21083U   22006.91667824 -.00061686  00000+0 -64965-2 0  9996
2 49204  87.2085 287.7938 0018506 255.0542   4.3014 14.89686688 18384
ONEWEB-0339             
1 49205U 21083V   22006.58334491  .00037834  00000+0  41822-2 0  9994
2 49205  87.3403 288.0847 0016499 248.1701 164.9225 14.87129745  3567
ONEWEB-0340             
1 49206U 21083W   22006.91667824 -.00044387  00000+0 -11313+0 0  9993
2 49206  87.9093 297.9296 0001606  86.6119  13.6171 13.18709096 17457
ONEWEB-0341             
1 49207U 21083X   22006.91667824 -.00043767  00000+0 -11154+0 0  9998
2 49207  87.9090 297.8203 0000768 120.6955 302.9140 13.18711418 17470
ONEWEB-0342             
1 49208U 21083Y   22006.58334491  .00038416  00000+0  39882-2 0  9997
2 49208  87.2044 287.8605 0019366 242.9816 193.3285 14.89633510  3546
